OBJECT_NAME,OBJECT_ID,EPOCH,MEAN_MOTION,ECCENTRICITY,INCLINATION,RA_OF_ASC_NODE,ARG_OF_PERICENTER,MEAN_ANOMALY,EPHEMERIS_TYPE,CLASSIFICATION_TYPE,NORAD_CAT_ID,ELEMENT_SET_NO,REV_AT_EPOCH,BSTAR,MEAN_MOTION_DOT,MEAN_MOTION_DDOT
STARLINK-37347,2026-082U,2026-07-20T21:10:54.388416,15.33450140,.00015573,97.2868,64.9220,92.5939,267.5482,0,U,68746,999,1486,.38072822E-3,.12238E-3,0
STARLINK-37268,2026-082V,2026-07-20T04:59:54.485664,15.33446452,.00017098,97.2851,64.3072,96.0250,264.1188,0,U,68747,999,1476,.32250381E-3,.10351E-3,0
STARLINK-37325,2026-082W,2026-07-20T09:06:34.432416,15.33452666,.00017031,97.2859,64.3824,113.9040,246.2382,0,U,68748,999,1478,.20961E-3,.67E-4,0
STARLINK-37324,2026-082X,2026-07-20T20:51:19.941984,15.33455360,.00020265,97.2867,64.9440,95.2333,264.9141,0,U,68749,999,1486,.54185104E-3,.17465E-3,0
STARLINK-37350,2026-082Y,2026-07-20T12:35:52.490112,15.33444643,.0001787,97.2880,63.5723,77.8859,282.2584,0,U,68750,999,1474,.15683E-3,.4991E-4,0
STARLINK-37277,2026-082Z,2026-07-20T13:09:19.867104,15.33436489,.0002219,97.2856,64.6130,89.9933,270.1564,0,U,68751,999,1481,.13359E-3,.4239E-4,0
STARLINK-37342,2026-082AA,2026-07-20T20:55:14.744352,15.33453422,.00022432,97.2860,64.9375,95.1680,264.9819,0,U,68752,999,1486,.37198963E-3,.11957E-3,0
SL-4 R/B,2026-083A,2026-07-20T22:30:51.934176,15.22836638,.00641088,98.2775,356.6884,112.9474,247.8542,0,U,68753,999,1446,.16415918E-3,.3975E-4,0
COSMOS 2609,2026-083B,2026-07-20T23:06:18.221760,15.07495052,.00101662,98.1265,352.7349,322.7625,37.2895,0,U,68754,999,1431,.10810231E-3,.1571E-4,0
COSMOS 2610,2026-083F,2026-07-20T22:40:01.911648,15.06637563,.00092996,97.8092,340.3502,303.9582,56.0760,0,U,68758,999,1428,.1006187E-3,.1427E-4,0
COSMOS 2611,2026-083G,2026-07-20T23:04:15.767904,15.06307398,.00100988,97.8153,339.8246,311.5063,48.5296,0,U,68759,999,1427,.60364607E-4,.822E-5,0
DAQI-2,2026-084A,2026-07-20T22:41:50.169120,14.57601785,.00023792,98.2857,275.9679,32.5552,327.5792,0,U,68760,999,1381,.65229885E-4,.251E-5,0
COSMOS 2612,2026-083H,2026-07-20T21:58:04.959552,15.07136382,.00114934,97.8581,340.7014,298.6768,61.3303,0,U,68762,999,1428,.92441848E-4,.1324E-4,0
COSMOS 2613,2026-083J,2026-07-20T21:47:16.896480,15.05635795,.00061069,97.7849,340.2865,231.4569,128.6110,0,U,68763,999,1428,.7730739E-4,.1052E-4,0
COSMOS 2614,2026-083K,2026-07-20T22:53:20.964768,15.05898237,.00048887,97.7817,339.4587,260.7373,99.3301,0,U,68764,999,1428,.6734302E-4,.915E-5,0
STARLINK-37168,2026-086A,2026-07-20T01:43:39.275904,15.33444522,.00010392,97.2840,237.4775,123.1245,237.0097,0,U,68766,999,1412,.29395377E-3,.9427E-4,0
STARLINK-37174,2026-086B,2026-07-20T01:39:44.583264,15.33443236,.00015304,97.2851,237.3330,84.9914,275.1504,0,U,68767,999,1411,.238602E-3,.7635E-4,0
STARLINK-37279,2026-086C,2026-07-20T01:31:54.507648,15.33447252,.00012282,97.2838,237.3395,129.3402,230.7950,0,U,68768,999,1411,.27319183E-3,.8755E-4,0
STARLINK-36379,2026-086D,2026-07-20T20:23:26.071584,15.33452692,.00002252,97.2859,238.1066,126.1625,233.9638,0,U,68769,999,1423,.40284149E-3,.12955E-3,0
STARLINK-37417,2026-086E,2026-07-20T09:13:56.992224,15.33433029,.0001071,97.2832,237.6698,109.3337,250.8021,0,U,68770,999,1416,.35541497E-3,.11412E-3,0
STARLINK-36759,2026-086F,2026-07-20T20:15:36.182592,15.33449690,.00009882,97.2842,238.1155,184.1126,176.0109,0,U,68771,999,1423,.38505558E-3,.12378E-3,0
STARLINK-37399,2026-086G,2026-07-20T09:10:00.027264,15.33442289,.00007204,97.2839,237.6703,196.2328,163.8892,0,U,68772,999,1416,.27544829E-3,.8827E-4,0
STARLINK-37281,2026-086H,2026-07-20T01:16:14.791008,15.33443955,.00012508,97.2864,237.3523,159.2553,200.8741,0,U,68773,999,1411,.23093666E-3,.7387E-4,0
STARLINK-37381,2026-086J,2026-07-20T19:59:56.313024,15.33452773,.00011308,97.2854,238.1294,217.3176,142.7989,0,U,68774,999,1423,.3994178E-3,.12845E-3,0
STARLINK-37418,2026-086K,2026-07-20T08:58:15.221856,15.33443792,.00006981,97.2837,237.6832,120.1702,239.9610,0,U,68775,999,1416,.27593493E-3,.8843E-4,0
STARLINK-37393,2026-086L,2026-07-20T19:48:11.508480,15.33454096,.00012369,97.2857,238.1420,213.3139,146.8026,0,U,68776,999,1423,.45688484E-3,.14708E-3,0
STARLINK-37400,2026-086M,2026-07-20T02:26:43.020384,15.33449258,.00024381,97.2823,237.4392,156.6648,203.4706,0,U,68777,999,1412,.12329983E-3,.3908E-4,0
STARLINK-37389,2026-086N,2026-07-20T02:38:28.018464,15.33445735,.00011376,97.2832,237.4287,150.2185,209.9122,0,U,68778,999,1412,.24306751E-3,.778E-4,0
STARLINK-37391,2026-086P,2026-07-20T19:44:16.258560,15.33467048,.00010339,97.2842,238.1443,96.7068,263.4292,0,U,68779,999,1423,.46596763E-3,.15008E-3,0
STARLINK-37266,2026-086Q,2026-07-20T19:36:27.710496,15.33438591,.00009325,97.2869,238.1507,201.6645,158.4558,0,U,68780,999,1423,.44785184E-3,.14408E-3,0
