STARLINK-37347          
1 68746U 26082U   26201.88257394  .00012238  00000+0  38073-3 0  9995
2 68746  97.2868  64.9220 0001557  92.5939 267.5482 15.33450140 14860
STARLINK-37268          
1 68747U 26082V   26201.20826951  .00010351  00000+0  32250-3 0  9998
2 68747  97.2851  64.3072 0001709  96.0250 264.1188 15.33446452 14762
STARLINK-37325          
1 68748U 26082W   26201.37956519  .00006700  00000+0  20961-3 0  9990
2 68748  97.2859  64.3824 0001703 113.9040 246.2382 15.33452666 14789
STARLINK-37324          
1 68749U 26082X   26201.86898081  .00017465  00000+0  54185-3 0  9999
2 68749  97.2867  64.9440 0002026  95.2333 264.9141 15.33455360 14868
STARLINK-37350          
1 68750U 26082Y   26201.52491308  .00004991  00000+0  15683-3 0  9995
2 68750  97.2880  63.5723 0001787  77.8859 282.2584 15.33444643 14749
STARLINK-37277          
1 68751U 26082Z   26201.54814661  .00004239  00000+0  13359-3 0  9992
2 68751  97.2856  64.6130 0002219  89.9933 270.1564 15.33436489 14816
STARLINK-37342          
1 68752U 26082AA  26201.87169843  .00011957  00000+0  37199-3 0  9997
2 68752  97.2860  64.9375 0002243  95.1680 264.9819 15.33453422 14866
SL-4 R/B                
1 68753U 26083A   26201.93810109  .00003975  00000+0  16416-3 0  9994
2 68753  98.2775 356.6884 0064108 112.9474 247.8542 15.22836638 14467
COSMOS 2609             
1 68754U 26083B   26201.96271090  .00001571  00000+0  10810-3 0  9990
2 68754  98.1265 352.7349 0010166 322.7625  37.2895 15.07495052 14318
COSMOS 2610             
1 68758U 26083F   26201.94446657  .00001427  00000+0  10062-3 0  9994
2 68758  97.8092 340.3502 0009299 303.9582  56.0760 15.06637563 14288
COSMOS 2611             
1 68759U 26083G   26201.96129361  .00000822  00000+0  60365-4 0  9997
2 68759  97.8153 339.8246 0010098 311.5063  48.5296 15.06307398 14272
DAQI-2                  
1 68760U 26084A   26201.94571955  .00000251  00000+0  65230-4 0  9990
2 68760  98.2857 275.9679 0002379  32.5552 327.5792 14.57601785 13818
COSMOS 2612             
1 68762U 26083H   26201.91533518  .00001324  00000+0  92442-4 0  9998
2 68762  97.8581 340.7014 0011493 298.6768  61.3303 15.07136382 14289
COSMOS 2613             
1 68763U 26083J   26201.90783445  .00001052  00000+0  77307-4 0  9995
2 68763  97.7849 340.2865 0006106 231.4569 128.6110 15.05635795 14287
COSMOS 2614             
1 68764U 26083K   26201.95371487  .00000915  00000+0  67343-4 0  9996
2 68764  97.7817 339.4587 0004888 260.7373  99.3301 15.05898237 14285
STARLINK-37168          
1 68766U 26086A   26201.07198236  .00009427  00000+0  29395-3 0  9994
2 68766  97.2840 237.4775 0001039 123.1245 237.0097 15.33444522 14120
STARLINK-37174          
1 68767U 26086B   26201.06926601  .00007635  00000+0  23860-3 0  9999
2 68767  97.2851 237.3330 0001530  84.9914 275.1504 15.33443236 14118
STARLINK-37279          
1 68768U 26086C   26201.06382532  .00008755  00000+0  27319-3 0  9996
2 68768  97.2838 237.3395 0001228 129.3402 230.7950 15.33447252 14119
STARLINK-36379          
1 68769U 26086D   26201.84960731  .00012955  00000+0  40284-3 0  9999
2 68769  97.2859 238.1066 0000225 126.1625 233.9638 15.33452692 14230
STARLINK-37417          
1 68770U 26086E   26201.38468741  .00011412  00000+0  35541-3 0  9991
2 68770  97.2832 237.6698 0001071 109.3337 250.8021 15.33433029 14160
STARLINK-36759          
1 68771U 26086F   26201.84416878  .00012378  00000+0  38506-3 0  9993
2 68771  97.2842 238.1155 0000988 184.1126 176.0109 15.33449690 14234
STARLINK-37399          
1 68772U 26086G   26201.38194476  .00008827  00000+0  27545-3 0  9995
2 68772  97.2839 237.6703 0000720 196.2328 163.8892 15.33442289 14168
STARLINK-37281          
1 68773U 26086H   26201.05294897  .00007387  00000+0  23094-3 0  9993
2 68773  97.2864 237.3523 0001250 159.2553 200.8741 15.33443955 14113
STARLINK-37381          
1 68774U 26086J   26201.83329066  .00012845  00000+0  39942-3 0  9991
2 68774  97.2854 238.1294 0001130 217.3176 142.7989 15.33452773 14230
STARLINK-37418          
1 68775U 26086K   26201.37378729  .00008843  00000+0  27593-3 0  9993
2 68775  97.2837 237.6832 0000698 120.1702 239.9610 15.33443792 14161
STARLINK-37393          
1 68776U 26086L   26201.82513320  .00014708  00000+0  45688-3 0  9994
2 68776  97.2857 238.1420 0001236 213.3139 146.8026 15.33454096 14235
STARLINK-37400          
1 68777U 26086M   26201.10188681  .00003908  00000+0  12330-3 0  9992
2 68777  97.2823 237.4392 0002438 156.6648 203.4706 15.33449258 14125
STARLINK-37389          
1 68778U 26086N   26201.11004651  .00007780  00000+0  24307-3 0  9997
2 68778  97.2832 237.4287 0001137 150.2185 209.9122 15.33445735 14129
STARLINK-37391          
1 68779U 26086P   26201.82241040  .00015008  00000+0  46597-3 0  9998
2 68779  97.2842 238.1443 0001033  96.7068 263.4292 15.33467048 14238
STARLINK-37266          
1 68780U 26086Q   26201.81698739  .00014408  00000+0  44785-3 0  9990
2 68780  97.2869 238.1507 0000932 201.6645 158.4558 15.33438591 14234
